{"fetched_at":"2026-07-23T17:55:55.776Z","source":"https://celestrak.org/NORAD/elements/gp.php?NAME=STRIX&FORMAT=JSON","constellation":"synspective","records":[{"OBJECT_NAME":"STRIX-1","OBJECT_ID":"2022-113A","EPOCH":"2026-07-23T07:09:22.191264","CLASSIFICATION_TYPE":"U","MEAN_MOTION":15.41293958,"ECCENTRICITY":0.00055416,"INCLINATION":97.4473,"RA_OF_ASC_NODE":267.0005,"ARG_OF_PERICENTER":111.776,"MEAN_ANOMALY":248.4077,"EPHEMERIS_TYPE":0,"NORAD_CAT_ID":53815,"ELEMENT_SET_NO":999,"REV_AT_EPOCH":21300,"BSTAR":0.00059194106,"MEAN_MOTION_DOT":0.00024619,"MEAN_MOTION_DDOT":0},{"OBJECT_NAME":"STRIX-3","OBJECT_ID":"2024-047A","EPOCH":"2026-07-23T06:17:15.434880","CLASSIFICATION_TYPE":"U","MEAN_MOTION":15.19907637,"ECCENTRICITY":0.00111539,"INCLINATION":97.6641,"RA_OF_ASC_NODE":180.4873,"ARG_OF_PERICENTER":303.799,"MEAN_ANOMALY":56.2181,"EPHEMERIS_TYPE":0,"NORAD_CAT_ID":59224,"ELEMENT_SET_NO":999,"REV_AT_EPOCH":13022,"BSTAR":0.00041784857,"MEAN_MOTION_DOT":0.00008922,"MEAN_MOTION_DDOT":0},{"OBJECT_NAME":"STRIX-4","OBJECT_ID":"2024-137A","EPOCH":"2026-07-23T02:50:36.881088","CLASSIFICATION_TYPE":"U","MEAN_MOTION":15.33538752,"ECCENTRICITY":0.0017341,"INCLINATION":43.0159,"RA_OF_ASC_NODE":80.4294,"ARG_OF_PERICENTER":186.305,"MEAN_ANOMALY":173.7588,"EPHEMERIS_TYPE":0,"NORAD_CAT_ID":60352,"ELEMENT_SET_NO":999,"REV_AT_EPOCH":10953,"BSTAR":0.00070507485,"MEAN_MOTION_DOT":0.00023246,"MEAN_MOTION_DDOT":0},{"OBJECT_NAME":"STRIX-2","OBJECT_ID":"2024-248A","EPOCH":"2026-07-23T06:38:20.046624","CLASSIFICATION_TYPE":"U","MEAN_MOTION":15.09254725,"ECCENTRICITY":0.00143235,"INCLINATION":97.6302,"RA_OF_ASC_NODE":159.7191,"ARG_OF_PERICENTER":205.0866,"MEAN_ANOMALY":154.9668,"EPHEMERIS_TYPE":0,"NORAD_CAT_ID":62406,"ELEMENT_SET_NO":999,"REV_AT_EPOCH":8703,"BSTAR":0.000385938,"MEAN_MOTION_DOT":0.00006094,"MEAN_MOTION_DDOT":0},{"OBJECT_NAME":"STRIX-5","OBJECT_ID":"2025-229A","EPOCH":"2026-07-22T22:48:52.322976","CLASSIFICATION_TYPE":"U","MEAN_MOTION":15.04634376,"ECCENTRICITY":0.00380029,"INCLINATION":41.9282,"RA_OF_ASC_NODE":89.0502,"ARG_OF_PERICENTER":286.6088,"MEAN_ANOMALY":73.0567,"EPHEMERIS_TYPE":0,"NORAD_CAT_ID":65971,"ELEMENT_SET_NO":999,"REV_AT_EPOCH":4236,"BSTAR":0.00030318439,"MEAN_MOTION_DOT":0.00004207,"MEAN_MOTION_DDOT":0},{"OBJECT_NAME":"STRIX-6","OBJECT_ID":"2026-056A","EPOCH":"2026-07-22T05:30:19.721952","CLASSIFICATION_TYPE":"U","MEAN_MOTION":15.00349853,"ECCENTRICITY":0.00166026,"INCLINATION":50.2824,"RA_OF_ASC_NODE":184.121,"ARG_OF_PERICENTER":18.2232,"MEAN_ANOMALY":341.9309,"EPHEMERIS_TYPE":0,"NORAD_CAT_ID":68291,"ELEMENT_SET_NO":999,"REV_AT_EPOCH":1853,"BSTAR":0.00016146071,"MEAN_MOTION_DOT":0.00001787,"MEAN_MOTION_DDOT":0},{"OBJECT_NAME":"STRIX-7","OBJECT_ID":"2026-112A","EPOCH":"2026-07-23T03:57:12.592512","CLASSIFICATION_TYPE":"U","MEAN_MOTION":15.01651294,"ECCENTRICITY":0.00254128,"INCLINATION":44.9085,"RA_OF_ASC_NODE":3.4572,"ARG_OF_PERICENTER":250.7079,"MEAN_ANOMALY":109.1043,"EPHEMERIS_TYPE":0,"NORAD_CAT_ID":69177,"ELEMENT_SET_NO":999,"REV_AT_EPOCH":928,"BSTAR":0.00030699707,"MEAN_MOTION_DOT":0.00003842,"MEAN_MOTION_DDOT":0},{"OBJECT_NAME":"STRIX-8","OBJECT_ID":"2026-146A","EPOCH":"2026-07-22T18:53:36.135456","CLASSIFICATION_TYPE":"U","MEAN_MOTION":15.04481887,"ECCENTRICITY":0.00063564,"INCLINATION":41.9902,"RA_OF_ASC_NODE":331.0352,"ARG_OF_PERICENTER":79.5982,"MEAN_ANOMALY":280.5561,"EPHEMERIS_TYPE":0,"NORAD_CAT_ID":69701,"ELEMENT_SET_NO":999,"REV_AT_EPOCH":392,"BSTAR":0.00033156897,"MEAN_MOTION_DOT":0.00004533,"MEAN_MOTION_DDOT":0}]}
