STRIX-1                 
1 53815U 22113A   26204.29817351  .00024619  00000+0  59194-3 0  9993
2 53815  97.4473 267.0005 0005541 111.7760 248.4077 15.41293958213001
STRIX-3                 
1 59224U 24047A   26204.26198420  .00008922  00000+0  41785-3 0  9993
2 59224  97.6641 180.4873 0011153 303.7990  56.2181 15.19907637130229
STRIX-4                 
1 60352U 24137A   26204.11848242  .00023246  00000+0  70507-3 0  9995
2 60352  43.0159  80.4294 0017341 186.3050 173.7588 15.33538752109535
STRIX-2                 
1 62406U 24248A   26204.27662091  .00006094  00000+0  38594-3 0  9995
2 62406  97.6302 159.7191 0014323 205.0866 154.9668 15.09254725 87037
STRIX-5                 
1 65971U 25229A   26203.95060559  .00004207  00000+0  30318-3 0  9990
2 65971  41.9282  89.0502 0038002 286.6088  73.0567 15.04634376 42363
STRIX-6                 
1 68291U 26056A   26203.22939493  .00001787  00000+0  16146-3 0  9992
2 68291  50.2824 184.1210 0016602  18.2232 341.9309 15.00349853 18533
STRIX-7                 
1 69177U 26112A   26204.16472908  .00003842  00000+0  30700-3 0  9992
2 69177  44.9085   3.4572 0025412 250.7079 109.1043 15.01651294  9288
STRIX-8                 
1 69701U 26146A   26203.78722379  .00004533  00000+0  33157-3 0  9996
2 69701  41.9902 331.0352 0006356  79.5982 280.5561 15.04481887  3924
